STARLINK-32018          
1 60105U 24117Q   26068.28451379 -.00000257  00000+0  34641-5 0  9995
2 60105  53.1618  39.0622 0001197  97.0561 263.0576 15.30193059 96826
ION SCV-017             
1 63230U 25052W   26068.71648816  .00006457  00000+0  24539-3 0  9998
2 63230  97.4016 324.7516 0023746  44.9875 315.3282 15.26881798 54851
